[{"OBJECT_NAME":"OBJECT DM","OBJECT_ID":"2025-009DM","EPOCH":"2026-03-09T18:02:25.223712","MEAN_MOTION":15.64307433,"ECCENTRICITY":0.00035565,"INCLINATION":97.4062,"RA_OF_ASC_NODE":158.7126,"ARG_OF_PERICENTER":233.4448,"MEAN_ANOMALY":126.6484,"EPHEMERIS_TYPE":0,"CLASSIFICATION_TYPE":"U","NORAD_CAT_ID":63002,"ELEMENT_SET_NO":999,"REV_AT_EPOCH":12182,"BSTAR":0.0018891728,"MEAN_MOTION_DOT":0.00183902,"MEAN_MOTION_DDOT":0},{"OBJECT_NAME":"COSMOS 1408 DEB","OBJECT_ID":"1982-092ALR","EPOCH":"2026-03-09T18:12:47.403072","MEAN_MOTION":15.6244858,"ECCENTRICITY":0.00237417,"INCLINATION":82.5714,"RA_OF_ASC_NODE":343.2099,"ARG_OF_PERICENTER":182.9883,"MEAN_ANOMALY":177.1238,"EPHEMERIS_TYPE":0,"CLASSIFICATION_TYPE":"U","NORAD_CAT_ID":50621,"ELEMENT_SET_NO":999,"REV_AT_EPOCH":23606,"BSTAR":0.00039817485,"MEAN_MOTION_DOT":0.00035952,"MEAN_MOTION_DDOT":0}]
